[{"OBJECT_NAME":"STARLINK-5168","OBJECT_ID":"2022-136W","EPOCH":"2025-08-11T16:10:57.664128","MEAN_MOTION":15.08837258,"ECCENTRICITY":0.0001387,"INCLINATION":53.2158,"RA_OF_ASC_NODE":206.5742,"ARG_OF_PERICENTER":81.2006,"MEAN_ANOMALY":278.9144,"EPHEMERIS_TYPE":0,"CLASSIFICATION_TYPE":"U","NORAD_CAT_ID":54071,"ELEMENT_SET_NO":999,"REV_AT_EPOCH":15514,"BSTAR":4.9549e-5,"MEAN_MOTION_DOT":5.01e-6,"MEAN_MOTION_DDOT":0},{"OBJECT_NAME":"STARLINK-5146","OBJECT_ID":"2022-136Y","EPOCH":"2025-08-12T08:02:49.431840","MEAN_MOTION":15.08842797,"ECCENTRICITY":0.0001349,"INCLINATION":53.2166,"RA_OF_ASC_NODE":198.6076,"ARG_OF_PERICENTER":81.902,"MEAN_ANOMALY":278.2125,"EPHEMERIS_TYPE":0,"CLASSIFICATION_TYPE":"U","NORAD_CAT_ID":54073,"ELEMENT_SET_NO":999,"REV_AT_EPOCH":15579,"BSTAR":4.9162e-5,"MEAN_MOTION_DOT":4.95e-6,"MEAN_MOTION_DDOT":0},{"OBJECT_NAME":"STARLINK-5192","OBJECT_ID":"2022-136Z","EPOCH":"2025-08-11T16:05:39.375168","MEAN_MOTION":15.08838808,"ECCENTRICITY":0.0001382,"INCLINATION":53.2162,"RA_OF_ASC_NODE":206.5497,"ARG_OF_PERICENTER":81.8705,"MEAN_ANOMALY":278.2444,"EPHEMERIS_TYPE":0,"CLASSIFICATION_TYPE":"U","NORAD_CAT_ID":54074,"ELEMENT_SET_NO":999,"REV_AT_EPOCH":15514,"BSTAR":2.7672e-5,"MEAN_MOTION_DOT":1.52e-6,"MEAN_MOTION_DDOT":0},{"OBJECT_NAME":"STARLINK-5212","OBJECT_ID":"2022-136AA","EPOCH":"2025-08-12T07:57:31.200768","MEAN_MOTION":15.0884013,"ECCENTRICITY":0.0001369,"INCLINATION":53.2154,"RA_OF_ASC_NODE":198.5821,"ARG_OF_PERICENTER":78.0819,"MEAN_ANOMALY":282.0327,"EPHEMERIS_TYPE":0,"CLASSIFICATION_TYPE":"U","NORAD_CAT_ID":54075,"ELEMENT_SET_NO":999,"REV_AT_EPOCH":15579,"BSTAR":2.3695e-5,"MEAN_MOTION_DOT":8.9e-7,"MEAN_MOTION_DDOT":0},{"OBJECT_NAME":"STARLINK-5201","OBJECT_ID":"2022-136AB","EPOCH":"2025-08-12T07:45:05.996448","MEAN_MOTION":15.08831576,"ECCENTRICITY":0.0001231,"INCLINATION":53.2167,"RA_OF_ASC_NODE":204.2068,"ARG_OF_PERICENTER":70.6471,"MEAN_ANOMALY":289.4654,"EPHEMERIS_TYPE":0,"CLASSIFICATION_TYPE":"U","NORAD_CAT_ID":54076,"ELEMENT_SET_NO":999,"REV_AT_EPOCH":15571,"BSTAR":-5.44e-5,"MEAN_MOTION_DOT":-1.153e-5,"MEAN_MOTION_DDOT":0},{"OBJECT_NAME":"STARLINK-5171","OBJECT_ID":"2022-136AC","EPOCH":"2025-08-12T06:42:14.062752","MEAN_MOTION":15.0884204,"ECCENTRICITY":0.000129,"INCLINATION":53.2169,"RA_OF_ASC_NODE":179.8364,"ARG_OF_PERICENTER":78.6366,"MEAN_ANOMALY":281.4771,"EPHEMERIS_TYPE":0,"CLASSIFICATION_TYPE":"U","NORAD_CAT_ID":54077,"ELEMENT_SET_NO":999,"REV_AT_EPOCH":15605,"BSTAR":4.6564e-5,"MEAN_MOTION_DOT":4.53e-6,"MEAN_MOTION_DDOT":0},{"OBJECT_NAME":"STARLINK-5138","OBJECT_ID":"2022-136AD","EPOCH":"2025-08-11T15:10:04.158048","MEAN_MOTION":15.08839797,"ECCENTRICITY":0.0001434,"INCLINATION":53.2151,"RA_OF_ASC_NODE":187.0618,"ARG_OF_PERICENTER":80.1724,"MEAN_ANOMALY":279.943,"EPHEMERIS_TYPE":0,"CLASSIFICATION_TYPE":"U","NORAD_CAT_ID":54078,"ELEMENT_SET_NO":999,"REV_AT_EPOCH":15541,"BSTAR":5.226e-5,"MEAN_MOTION_DOT":5.44e-6,"MEAN_MOTION_DDOT":0},{"OBJECT_NAME":"STARLINK-5175","OBJECT_ID":"2022-136AE","EPOCH":"2025-08-11T23:48:06.793056","MEAN_MOTION":15.08841643,"ECCENTRICITY":0.0001219,"INCLINATION":53.2163,"RA_OF_ASC_NODE":195.7148,"ARG_OF_PERICENTER":77.5509,"MEAN_ANOMALY":282.562,"EPHEMERIS_TYPE":0,"CLASSIFICATION_TYPE":"U","NORAD_CAT_ID":54079,"ELEMENT_SET_NO":999,"REV_AT_EPOCH":15580,"BSTAR":4.7609e-5,"MEAN_MOTION_DOT":4.7e-6,"MEAN_MOTION_DDOT":0},{"OBJECT_NAME":"STARLINK-5160","OBJECT_ID":"2022-136AF","EPOCH":"2025-08-11T23:39:29.738304","MEAN_MOTION":15.08835991,"ECCENTRICITY":0.00014,"INCLINATION":53.2154,"RA_OF_ASC_NODE":200.6852,"ARG_OF_PERICENTER":90.0723,"MEAN_ANOMALY":270.043,"EPHEMERIS_TYPE":0,"CLASSIFICATION_TYPE":"U","NORAD_CAT_ID":54080,"ELEMENT_SET_NO":999,"REV_AT_EPOCH":15573,"BSTAR":3.8684e-5,"MEAN_MOTION_DOT":3.28e-6,"MEAN_MOTION_DDOT":0},{"OBJECT_NAME":"STARLINK-5165","OBJECT_ID":"2022-136AG","EPOCH":"2025-08-11T15:09:58.199904","MEAN_MOTION":15.09558287,"ECCENTRICITY":0.0001002,"INCLINATION":53.2155,"RA_OF_ASC_NODE":197.0306,"ARG_OF_PERICENTER":59.1846,"MEAN_ANOMALY":300.9245,"EPHEMERIS_TYPE":0,"CLASSIFICATION_TYPE":"U","NORAD_CAT_ID":54081,"ELEMENT_SET_NO":999,"REV_AT_EPOCH":15575,"BSTAR":2.5493e-5,"MEAN_MOTION_DOT":1.24e-6,"MEAN_MOTION_DDOT":0},{"OBJECT_NAME":"STARLINK-5210","OBJECT_ID":"2022-136AH","EPOCH":"2025-08-12T04:28:58.274112","MEAN_MOTION":15.08835679,"ECCENTRICITY":0.000139,"INCLINATION":53.2158,"RA_OF_ASC_NODE":194.7998,"ARG_OF_PERICENTER":87.7569,"MEAN_ANOMALY":272.3582,"EPHEMERIS_TYPE":0,"CLASSIFICATION_TYPE":"U","NORAD_CAT_ID":54082,"ELEMENT_SET_NO":999,"REV_AT_EPOCH":15583,"BSTAR":1.0624e-5,"MEAN_MOTION_DOT":-1.19e-6,"MEAN_MOTION_DDOT":0},{"OBJECT_NAME":"STARLINK-5178","OBJECT_ID":"2022-136AJ","EPOCH":"2025-08-11T15:29:58.084224","MEAN_MOTION":15.08836951,"ECCENTRICITY":0.0001865,"INCLINATION":53.2173,"RA_OF_ASC_NODE":197.1119,"ARG_OF_PERICENTER":79.7516,"MEAN_ANOMALY":280.3687,"EPHEMERIS_TYPE":0,"CLASSIFICATION_TYPE":"U","NORAD_CAT_ID":54083,"ELEMENT_SET_NO":999,"REV_AT_EPOCH":15527,"BSTAR":5.0825e-5,"MEAN_MOTION_DOT":5.21e-6,"MEAN_MOTION_DDOT":0},{"OBJECT_NAME":"STARLINK-5183","OBJECT_ID":"2022-136AK","EPOCH":"2025-08-11T23:37:30.661824","MEAN_MOTION":15.08840281,"ECCENTRICITY":0.000131,"INCLINATION":53.2162,"RA_OF_ASC_NODE":195.669,"ARG_OF_PERICENTER":90.1476,"MEAN_ANOMALY":269.9666,"EPHEMERIS_TYPE":0,"CLASSIFICATION_TYPE":"U","NORAD_CAT_ID":54084,"ELEMENT_SET_NO":999,"REV_AT_EPOCH":15580,"BSTAR":4.0067e-5,"MEAN_MOTION_DOT":3.5e-6,"MEAN_MOTION_DDOT":0},{"OBJECT_NAME":"STARLINK-5166","OBJECT_ID":"2022-136AL","EPOCH":"2025-08-11T07:29:06.602208","MEAN_MOTION":15.08837401,"ECCENTRICITY":0.0001342,"INCLINATION":53.2147,"RA_OF_ASC_NODE":198.5819,"ARG_OF_PERICENTER":75.7851,"MEAN_ANOMALY":284.329,"EPHEMERIS_TYPE":0,"CLASSIFICATION_TYPE":"U","NORAD_CAT_ID":54085,"ELEMENT_SET_NO":999,"REV_AT_EPOCH":15522,"BSTAR":1.5719e-5,"MEAN_MOTION_DOT":-3.8e-7,"MEAN_MOTION_DDOT":0},{"OBJECT_NAME":"STARLINK-5211","OBJECT_ID":"2022-136AM","EPOCH":"2025-08-11T07:32:22.845120","MEAN_MOTION":15.08834853,"ECCENTRICITY":0.0001177,"INCLINATION":53.2165,"RA_OF_ASC_NODE":183.6357,"ARG_OF_PERICENTER":74.963,"MEAN_ANOMALY":285.1492,"EPHEMERIS_TYPE":0,"CLASSIFICATION_TYPE":"U","NORAD_CAT_ID":54086,"ELEMENT_SET_NO":999,"REV_AT_EPOCH":15543,"BSTAR":-1.4969e-5,"MEAN_MOTION_DOT":-5.26e-6,"MEAN_MOTION_DDOT":0},{"OBJECT_NAME":"STARLINK-5184","OBJECT_ID":"2022-136AN","EPOCH":"2025-08-11T08:10:03.174528","MEAN_MOTION":15.08838346,"ECCENTRICITY":0.000129,"INCLINATION":53.2168,"RA_OF_ASC_NODE":198.0574,"ARG_OF_PERICENTER":70.1519,"MEAN_ANOMALY":289.9612,"EPHEMERIS_TYPE":0,"CLASSIFICATION_TYPE":"U","NORAD_CAT_ID":54087,"ELEMENT_SET_NO":999,"REV_AT_EPOCH":15523,"BSTAR":-1.0155e-5,"MEAN_MOTION_DOT":-4.49e-6,"MEAN_MOTION_DDOT":0},{"OBJECT_NAME":"STARLINK-5153","OBJECT_ID":"2022-136AP","EPOCH":"2025-08-11T15:35:16.412064","MEAN_MOTION":15.08839958,"ECCENTRICITY":0.0001879,"INCLINATION":53.2198,"RA_OF_ASC_NODE":197.1337,"ARG_OF_PERICENTER":85.5903,"MEAN_ANOMALY":274.5304,"EPHEMERIS_TYPE":0,"CLASSIFICATION_TYPE":"U","NORAD_CAT_ID":54088,"ELEMENT_SET_NO":999,"REV_AT_EPOCH":15527,"BSTAR":5.8522e-5,"MEAN_MOTION_DOT":6.43e-6,"MEAN_MOTION_DDOT":0}]
