STARLINK-5168           
1 54071U 22136W   25223.67427852  .00000501  00000+0  49549-4 0  9996
2 54071  53.2158 206.5742 0001387  81.2006 278.9144 15.08837258155143
STARLINK-5146           
1 54073U 22136Y   25224.33529435  .00000495  00000+0  49162-4 0  9995
2 54073  53.2166 198.6076 0001349  81.9020 278.2125 15.08842797155793
STARLINK-5192           
1 54074U 22136Z   25223.67059462  .00000152  00000+0  27672-4 0  9992
2 54074  53.2162 206.5497 0001382  81.8705 278.2444 15.08838808155143
STARLINK-5212           
1 54075U 22136AA  25224.33161112  .00000089  00000+0  23695-4 0  9993
2 54075  53.2154 198.5821 0001369  78.0819 282.0327 15.08840130155790
STARLINK-5201           
1 54076U 22136AB  25224.32298607 -.00001153  00000+0 -54400-4 0  9996
2 54076  53.2167 204.2068 0001231  70.6471 289.4654 15.08831576155713
STARLINK-5171           
1 54077U 22136AC  25224.27932943  .00000453  00000+0  46564-4 0  9991
2 54077  53.2169 179.8364 0001290  78.6366 281.4771 15.08842040156056
STARLINK-5138           
1 54078U 22136AD  25223.63199257  .00000544  00000+0  52260-4 0  9995
2 54078  53.2151 187.0618 0001434  80.1724 279.9430 15.08839797155415
STARLINK-5175           
1 54079U 22136AE  25223.99174529  .00000470  00000+0  47609-4 0  9999
2 54079  53.2163 195.7148 0001219  77.5509 282.5620 15.08841643155802
STARLINK-5160           
1 54080U 22136AF  25223.98576086  .00000328  00000+0  38684-4 0  9999
2 54080  53.2154 200.6852 0001400  90.0723 270.0430 15.08835991155734
STARLINK-5165           
1 54081U 22136AG  25223.63192361  .00000124  00000+0  25493-4 0  9990
2 54081  53.2155 197.0306 0001002  59.1846 300.9245 15.09558287155759
STARLINK-5210           
1 54082U 22136AH  25224.18678558 -.00000119  00000+0  10624-4 0  9994
2 54082  53.2158 194.7998 0001390  87.7569 272.3582 15.08835679155830
STARLINK-5178           
1 54083U 22136AJ  25223.64581116  .00000521  00000+0  50825-4 0  9991
2 54083  53.2173 197.1119 0001865  79.7516 280.3687 15.08836951155277
STARLINK-5183           
1 54084U 22136AK  25223.98438266  .00000350  00000+0  40067-4 0  9993
2 54084  53.2162 195.6690 0001310  90.1476 269.9666 15.08840281155800
STARLINK-5166           
1 54085U 22136AL  25223.31188197 -.00000038  00000+0  15719-4 0  9996
2 54085  53.2147 198.5819 0001342  75.7851 284.3290 15.08837401155220
STARLINK-5211           
1 54086U 22136AM  25223.31415330 -.00000526  00000+0 -14969-4 0  9998
2 54086  53.2165 183.6357 0001177  74.9630 285.1492 15.08834853155439
STARLINK-5184           
1 54087U 22136AN  25223.34031452 -.00000449  00000+0 -10155-4 0  9998
2 54087  53.2168 198.0574 0001290  70.1519 289.9612 15.08838346155239
STARLINK-5153           
1 54088U 22136AP  25223.64949551  .00000643  00000+0  58522-4 0  9994
2 54088  53.2198 197.1337 0001879  85.5903 274.5304 15.08839958155272
